[{"OBJECT_NAME":"OBJECT J","OBJECT_ID":"2023-085J","EPOCH":"2026-03-09T22:47:59.920512","MEAN_MOTION":15.31507187,"ECCENTRICITY":0.00067028,"INCLINATION":97.4828,"RA_OF_ASC_NODE":180.1819,"ARG_OF_PERICENTER":41.7877,"MEAN_ANOMALY":318.3875,"EPHEMERIS_TYPE":0,"CLASSIFICATION_TYPE":"U","NORAD_CAT_ID":57012,"ELEMENT_SET_NO":999,"REV_AT_EPOCH":15156,"BSTAR":0.00064525349,"MEAN_MOTION_DOT":0.00019595,"MEAN_MOTION_DDOT":0},{"OBJECT_NAME":"STARLINK-34532","OBJECT_ID":"2025-137P","EPOCH":"2026-03-09T04:17:42.035136","MEAN_MOTION":15.30169384,"ECCENTRICITY":9.777e-5,"INCLINATION":53.161,"RA_OF_ASC_NODE":347.7638,"ARG_OF_PERICENTER":85.525,"MEAN_ANOMALY":274.5862,"EPHEMERIS_TYPE":0,"CLASSIFICATION_TYPE":"U","NORAD_CAT_ID":64607,"ELEMENT_SET_NO":999,"REV_AT_EPOCH":4051,"BSTAR":0.00093628197,"MEAN_MOTION_DOT":0.00027447,"MEAN_MOTION_DDOT":0}]
